[{"OBJECT_NAME":"SL-12 R/B(2)","OBJECT_ID":"1983-020D","EPOCH":"2026-03-28T10:49:21.810432","MEAN_MOTION":0.24718615,"ECCENTRICITY":0.67573416,"INCLINATION":77.4451,"RA_OF_ASC_NODE":58.7914,"ARG_OF_PERICENTER":49.993,"MEAN_ANOMALY":359.0253,"EPHEMERIS_TYPE":0,"CLASSIFICATION_TYPE":"U","NORAD_CAT_ID":20413,"ELEMENT_SET_NO":999,"REV_AT_EPOCH":1115,"BSTAR":0,"MEAN_MOTION_DOT":2.26e-6,"MEAN_MOTION_DDOT":0},{"OBJECT_NAME":"STTW-4","OBJECT_ID":"1990-011A","EPOCH":"2026-03-28T16:55:23.007360","MEAN_MOTION":1.00312313,"ECCENTRICITY":0.0001703,"INCLINATION":14.1968,"RA_OF_ASC_NODE":347.0248,"ARG_OF_PERICENTER":166.2371,"MEAN_ANOMALY":16.4421,"EPHEMERIS_TYPE":0,"CLASSIFICATION_TYPE":"U","NORAD_CAT_ID":20473,"ELEMENT_SET_NO":999,"REV_AT_EPOCH":13223,"BSTAR":0,"MEAN_MOTION_DOT":-2.65e-6,"MEAN_MOTION_DDOT":0},{"OBJECT_NAME":"RADUGA 25","OBJECT_ID":"1990-016A","EPOCH":"2026-03-28T04:11:57.915168","MEAN_MOTION":1.00207801,"ECCENTRICITY":0.00042101,"INCLINATION":12.4062,"RA_OF_ASC_NODE":335.2524,"ARG_OF_PERICENTER":219.423,"MEAN_ANOMALY":0.8709,"EPHEMERIS_TYPE":0,"CLASSIFICATION_TYPE":"U","NORAD_CAT_ID":20499,"ELEMENT_SET_NO":999,"REV_AT_EPOCH":13209,"BSTAR":0,"MEAN_MOTION_DOT":-3.15e-6,"MEAN_MOTION_DDOT":0},{"OBJECT_NAME":"SL-12 R/B(2)","OBJECT_ID":"1990-016D","EPOCH":"2026-03-28T12:49:31.582848","MEAN_MOTION":1.00026788,"ECCENTRICITY":0.0040378,"INCLINATION":12.5454,"RA_OF_ASC_NODE":335.7497,"ARG_OF_PERICENTER":244.7545,"MEAN_ANOMALY":104.7305,"EPHEMERIS_TYPE":0,"CLASSIFICATION_TYPE":"U","NORAD_CAT_ID":20502,"ELEMENT_SET_NO":999,"REV_AT_EPOCH":13195,"BSTAR":0,"MEAN_MOTION_DOT":-3.12e-6,"MEAN_MOTION_DDOT":0},{"OBJECT_NAME":"NEWSAT-1 (PALAPA B2R)","OBJECT_ID":"1990-034A","EPOCH":"2026-03-28T08:10:38.882784","MEAN_MOTION":0.99523957,"ECCENTRICITY":0.0006968,"INCLINATION":14.7235,"RA_OF_ASC_NODE":3.5243,"ARG_OF_PERICENTER":148.3198,"MEAN_ANOMALY":44.8503,"EPHEMERIS_TYPE":0,"CLASSIFICATION_TYPE":"U","NORAD_CAT_ID":20570,"ELEMENT_SET_NO":999,"REV_AT_EPOCH":4548,"BSTAR":0,"MEAN_MOTION_DOT":2.0e-8,"MEAN_MOTION_DDOT":0},{"OBJECT_NAME":"INSAT-1D","OBJECT_ID":"1990-051A","EPOCH":"2026-03-28T17:51:38.831616","MEAN_MOTION":1.00279731,"ECCENTRICITY":0.0014929,"INCLINATION":14.6193,"RA_OF_ASC_NODE":354.5817,"ARG_OF_PERICENTER":196.6009,"MEAN_ANOMALY":343.6485,"EPHEMERIS_TYPE":0,"CLASSIFICATION_TYPE":"U","NORAD_CAT_ID":20643,"ELEMENT_SET_NO":999,"REV_AT_EPOCH":11794,"BSTAR":0,"MEAN_MOTION_DOT":-1.79e-6,"MEAN_MOTION_DDOT":0},{"OBJECT_NAME":"GORIZONT 20","OBJECT_ID":"1990-054A","EPOCH":"2026-03-28T18:30:36.375840","MEAN_MOTION":1.00314904,"ECCENTRICITY":0.0005987,"INCLINATION":12.76,"RA_OF_ASC_NODE":336.6304,"ARG_OF_PERICENTER":246.109,"MEAN_ANOMALY":304.712,"EPHEMERIS_TYPE":0,"CLASSIFICATION_TYPE":"U","NORAD_CAT_ID":20659,"ELEMENT_SET_NO":999,"REV_AT_EPOCH":13088,"BSTAR":0,"MEAN_MOTION_DOT":-2.5e-7,"MEAN_MOTION_DDOT":0},{"OBJECT_NAME":"SL-12 R/B(2)","OBJECT_ID":"1990-054D","EPOCH":"2026-03-27T17:00:50.315616","MEAN_MOTION":1.0051827,"ECCENTRICITY":0.00135433,"INCLINATION":12.6041,"RA_OF_ASC_NODE":336.055,"ARG_OF_PERICENTER":98.9248,"MEAN_ANOMALY":261.2072,"EPHEMERIS_TYPE":0,"CLASSIFICATION_TYPE":"U","NORAD_CAT_ID":20662,"ELEMENT_SET_NO":999,"REV_AT_EPOCH":13097,"BSTAR":0,"MEAN_MOTION_DOT":-1.63e-6,"MEAN_MOTION_DDOT":0},{"OBJECT_NAME":"COSMOS 2085","OBJECT_ID":"1990-061A","EPOCH":"2026-03-28T18:07:38.731296","MEAN_MOTION":1.00262066,"ECCENTRICITY":0.0014001,"INCLINATION":12.7477,"RA_OF_ASC_NODE":337.0538,"ARG_OF_PERICENTER":29.1346,"MEAN_ANOMALY":164.668,"EPHEMERIS_TYPE":0,"CLASSIFICATION_TYPE":"U","NORAD_CAT_ID":20693,"ELEMENT_SET_NO":999,"REV_AT_EPOCH":13069,"BSTAR":0,"MEAN_MOTION_DOT":-9.7e-7,"MEAN_MOTION_DDOT":0},{"OBJECT_NAME":"SL-12 R/B(2)","OBJECT_ID":"1990-061D","EPOCH":"2026-03-28T13:38:04.426656","MEAN_MOTION":1.00308764,"ECCENTRICITY":0.0031742,"INCLINATION":12.7143,"RA_OF_ASC_NODE":336.9273,"ARG_OF_PERICENTER":218.1654,"MEAN_ANOMALY":313.5524,"EPHEMERIS_TYPE":0,"CLASSIFICATION_TYPE":"U","NORAD_CAT_ID":20696,"ELEMENT_SET_NO":999,"REV_AT_EPOCH":12959,"BSTAR":0,"MEAN_MOTION_DOT":-3.89e-6,"MEAN_MOTION_DDOT":0},{"OBJECT_NAME":"DFS 2","OBJECT_ID":"1990-063B","EPOCH":"2026-03-28T18:38:43.097280","MEAN_MOTION":0.99544353,"ECCENTRICITY":0.0007284,"INCLINATION":14.5446,"RA_OF_ASC_NODE":4.246,"ARG_OF_PERICENTER":281.1194,"MEAN_ANOMALY":272.8072,"EPHEMERIS_TYPE":0,"CLASSIFICATION_TYPE":"U","NORAD_CAT_ID":20706,"ELEMENT_SET_NO":999,"REV_AT_EPOCH":12212,"BSTAR":0,"MEAN_MOTION_DOT":-1.3e-6,"MEAN_MOTION_DDOT":0},{"OBJECT_NAME":"COSMOS 2087","OBJECT_ID":"1990-064A","EPOCH":"2026-03-27T14:19:13.268640","MEAN_MOTION":2.00568535,"ECCENTRICITY":0.621773,"INCLINATION":67.7348,"RA_OF_ASC_NODE":191.3906,"ARG_OF_PERICENTER":26.8499,"MEAN_ANOMALY":354.8943,"EPHEMERIS_TYPE":0,"CLASSIFICATION_TYPE":"U","NORAD_CAT_ID":20707,"ELEMENT_SET_NO":999,"REV_AT_EPOCH":26119,"BSTAR":0,"MEAN_MOTION_DOT":-5.21e-6,"MEAN_MOTION_DDOT":0},{"OBJECT_NAME":"SL-6 R/B(2)","OBJECT_ID":"1990-064D","EPOCH":"2026-03-28T14:45:20.321856","MEAN_MOTION":2.04551225,"ECCENTRICITY":0.6190399,"INCLINATION":69.2782,"RA_OF_ASC_NODE":104.3701,"ARG_OF_PERICENTER":13.9665,"MEAN_ANOMALY":357.4905,"EPHEMERIS_TYPE":0,"CLASSIFICATION_TYPE":"U","NORAD_CAT_ID":20710,"ELEMENT_SET_NO":999,"REV_AT_EPOCH":26642,"BSTAR":0,"MEAN_MOTION_DOT":-7.0e-7,"MEAN_MOTION_DDOT":0},{"OBJECT_NAME":"MARCOPOLO 2 R/B [PAM-D]","OBJECT_ID":"1990-074C","EPOCH":"2026-03-28T20:40:07.778496","MEAN_MOTION":2.18671855,"ECCENTRICITY":0.7281492,"INCLINATION":20.8686,"RA_OF_ASC_NODE":274.5936,"ARG_OF_PERICENTER":53.6543,"MEAN_ANOMALY":353.5036,"EPHEMERIS_TYPE":0,"CLASSIFICATION_TYPE":"U","NORAD_CAT_ID":20764,"ELEMENT_SET_NO":999,"REV_AT_EPOCH":28203,"BSTAR":0.00087313,"MEAN_MOTION_DOT":8.0e-7,"MEAN_MOTION_DDOT":0},{"OBJECT_NAME":"SKYNET 4C","OBJECT_ID":"1990-079A","EPOCH":"2026-03-28T20:04:47.904384","MEAN_MOTION":1.00272795,"ECCENTRICITY":0.000347,"INCLINATION":13.3658,"RA_OF_ASC_NODE":350.3637,"ARG_OF_PERICENTER":5.3383,"MEAN_ANOMALY":165.0871,"EPHEMERIS_TYPE":0,"CLASSIFICATION_TYPE":"U","NORAD_CAT_ID":20776,"ELEMENT_SET_NO":999,"REV_AT_EPOCH":13008,"BSTAR":0,"MEAN_MOTION_DOT":1.13e-6,"MEAN_MOTION_DDOT":0},{"OBJECT_NAME":"GOES 2 AKM","OBJECT_ID":"1977-048G","EPOCH":"2026-03-28T14:21:15.287040","MEAN_MOTION":1.00581892,"ECCENTRICITY":0.021038,"INCLINATION":4.3062,"RA_OF_ASC_NODE":276.4432,"ARG_OF_PERICENTER":106.0546,"MEAN_ANOMALY":290.4024,"EPHEMERIS_TYPE":0,"CLASSIFICATION_TYPE":"U","NORAD_CAT_ID":20799,"ELEMENT_SET_NO":999,"REV_AT_EPOCH":11702,"BSTAR":0,"MEAN_MOTION_DOT":-3.02e-6,"MEAN_MOTION_DDOT":0},{"OBJECT_NAME":"METEOSAT-4 AKM","OBJECT_ID":"1989-020E","EPOCH":"2026-03-28T18:27:29.174688","MEAN_MOTION":1.00467515,"ECCENTRICITY":0.0130451,"INCLINATION":11.0874,"RA_OF_ASC_NODE":331.8004,"ARG_OF_PERICENTER":255.2476,"MEAN_ANOMALY":290.1737,"EPHEMERIS_TYPE":0,"CLASSIFICATION_TYPE":"U","NORAD_CAT_ID":20800,"ELEMENT_SET_NO":999,"REV_AT_EPOCH":11539,"BSTAR":0,"MEAN_MOTION_DOT":-4.0e-7,"MEAN_MOTION_DDOT":0}]
