SL-12 R/B(2)            
1 20413U 83020D   26087.45094688  .00000226  00000+0  00000+0 0  9998
2 20413  77.4451  58.7914 6757341  49.9930 359.0253  0.24718615 11150
STTW-4                  
1 20473U 90011A   26087.70512740 -.00000265  00000+0  00000+0 0  9998
2 20473  14.1968 347.0248 0001703 166.2371  16.4421  1.00312313132235
RADUGA 25               
1 20499U 90016A   26087.17497587 -.00000315  00000+0  00000+0 0  9999
2 20499  12.4062 335.2524 0004210 219.4230   0.8709  1.00207801132091
SL-12 R/B(2)            
1 20502U 90016D   26087.53439332 -.00000312  00000+0  00000+0 0  9995
2 20502  12.5454 335.7497 0040378 244.7545 104.7305  1.00026788131954
NEWSAT-1 (PALAPA B2R)   
1 20570U 90034A   26087.34072781  .00000002  00000+0  00000+0 0  9995
2 20570  14.7235   3.5243 0006968 148.3198  44.8503  0.99523957 45482
INSAT-1D                
1 20643U 90051A   26087.74419944 -.00000179  00000+0  00000+0 0  9991
2 20643  14.6193 354.5817 0014929 196.6009 343.6485  1.00279731117945
GORIZONT 20             
1 20659U 90054A   26087.77125435 -.00000025  00000+0  00000+0 0  9993
2 20659  12.7600 336.6304 0005987 246.1090 304.7120  1.00314904130885
SL-12 R/B(2)            
1 20662U 90054D   26086.70891569 -.00000163  00000+0  00000+0 0  9990
2 20662  12.6041 336.0550 0013543  98.9248 261.2072  1.00518270130974
COSMOS 2085             
1 20693U 90061A   26087.75530939 -.00000097  00000+0  00000+0 0  9995
2 20693  12.7477 337.0538 0014001  29.1346 164.6680  1.00262066130693
SL-12 R/B(2)            
1 20696U 90061D   26087.56810679 -.00000389  00000+0  00000+0 0  9993
2 20696  12.7143 336.9273 0031742 218.1654 313.5524  1.00308764129598
DFS 2                   
1 20706U 90063B   26087.77688770 -.00000130  00000+0  00000+0 0  9999
2 20706  14.5446   4.2460 0007284 281.1194 272.8072  0.99544353122122
COSMOS 2087             
1 20707U 90064A   26086.59668135 -.00000521  00000+0  00000+0 0  9997
2 20707  67.7348 191.3906 6217730  26.8499 354.8943  2.00568535261195
SL-6 R/B(2)             
1 20710U 90064D   26087.61481854 -.00000070  00000+0  00000+0 0  9995
2 20710  69.2782 104.3701 6190399  13.9665 357.4905  2.04551225266428
MARCOPOLO 2 R/B [PAM-D] 
1 20764U 90074C   26087.86120114  .00000080  00000+0  87313-3 0  9997
2 20764  20.8686 274.5936 7281492  53.6543 353.5036  2.18671855282039
SKYNET 4C               
1 20776U 90079A   26087.83666556  .00000113  00000+0  00000+0 0  9998
2 20776  13.3658 350.3637 0003470   5.3383 165.0871  1.00272795130086
GOES 2 AKM              
1 20799U 77048G   26087.59809360 -.00000302  00000+0  00000+0 0  9990
2 20799   4.3062 276.4432 0210380 106.0546 290.4024  1.00581892117024
METEOSAT-4 AKM          
1 20800U 89020E   26087.76908767 -.00000040  00000+0  00000+0 0  9995
2 20800  11.0874 331.8004 0130451 255.2476 290.1737  1.00467515115394
